CCSDS_OMM_VERS,COMMENT,CREATION_DATE,ORIGINATOR,OBJECT_NAME,OBJECT_ID,CENTER_NAME,REF_FRAME,TIME_SYSTEM,MEAN_ELEMENT_THEORY,EPOCH,MEAN_MOTION,ECCENTRICITY,INCLINATION,RA_OF_ASC_NODE,ARG_OF_PERICENTER,MEAN_ANOMALY,EPHEMERIS_TYPE,CLASSIFICATION_TYPE,NORAD_CAT_ID,ELEMENT_SET_NO,REV_AT_EPOCH,BSTAR,MEAN_MOTION_DOT,MEAN_MOTION_DDOT,SEMIMAJOR_AXIS,PERIOD,APOAPSIS,PERIAPSIS,OBJECT_TYPE,RCS_SIZE,COUNTRY_CODE,LAUNCH_DATE,SITE,DECAY_DATE,FILE,GP_ID,TLE_LINE0,TLE_LINE1,TLE_LINE2
2,GENERATED VIA SPACE-TRACK.ORG API,2023-07-05T22:36:19,18 SPCS,KSF3-C,2023-001K,EARTH,TEME,UTC,SGP4,2023-07-05T15:22:42.877920,15.17322068,0.0008707,97.4756,245.9445,314.5976,45.4546,0,U,55018,999,2786,0.00046849,9.288e-05,0,6892.075,94.904,519.941,507.939,PAYLOAD,MEDIUM,LUXE,2023-01-03,AFETR,,3950316,234734845,0 KSF3-C,1 55018U 23001K   23186.64077405  .00009288  00000-0  46849-3 0  9999,2 55018  97.4756 245.9445 0008707 314.5976  45.4546 15.17322068 27865
